{
  "type": "FeatureCollection",
  "features": [
    {
      "type": "Feature",
      "properties": {
        "norad_id": 34972,
        "name": "COSMOS 2251 DEB",
        "group": "cosmos-2251-debris",
        "lat": -15.561520733568273,
        "lon": 38.170744786804846,
        "alt_km": 674.829665120048,
        "timestamp": "2025-12-16T08:59:43.557287+00:00",
        "meta_object_name": "COSMOS 2251 DEB",
        "meta_object_id": "1993-036AFB",
        "meta_epoch": "2025-12-15T10:19:31.579968",
        "meta_mean_motion": 14.72931379,
        "meta_eccentricity": 0.00334754,
        "meta_inclination": 73.9887,
        "meta_ra_of_asc_node": 44.6018,
        "meta_arg_of_pericenter": 203.2448,
        "meta_mean_anomaly": 173.7883,
        "meta_ephemeris_type": 0,
        "meta_classification_type": "U",
        "meta_norad_cat_id": 34972,
        "meta_element_set_no": 999,
        "meta_rev_at_epoch": 87690,
        "meta_bstar": 0.00082603298,
        "meta_mean_motion_dot": 5.315e-05,
        "meta_mean_motion_ddot": 0,
        "tle_line1": "1 34972U 93036AFB 25349.43022662  .00005315  00000+0  82603-3 0  9999",
        "tle_line2": "2 34972  73.9887  44.6018 0033475 203.2448 173.7883 14.72931379876900"
      },
      "geometry": {
        "type": "Point",
        "coordinates": [
          38.170744786804846,
          -15.561520733568273
        ]
      }
    },
    {
      "type": "Feature",
      "properties": {
        "norad_id": 34976,
        "name": "COSMOS 2251 DEB",
        "group": "cosmos-2251-debris",
        "lat": 51.055359961734936,
        "lon": 98.41994685801244,
        "alt_km": 660.8152105924955,
        "timestamp": "2025-12-16T08:59:43.557297+00:00",
        "meta_object_name": "COSMOS 2251 DEB",
        "meta_object_id": "1993-036AFF",
        "meta_epoch": "2025-12-15T21:11:04.263072",
        "meta_mean_motion": 14.76639954,
        "meta_eccentricity": 0.00478049,
        "meta_inclination": 74.0567,
        "meta_ra_of_asc_node": 300.0972,
        "meta_arg_of_pericenter": 346.2242,
        "meta_mean_anomaly": 44.3918,
        "meta_ephemeris_type": 0,
        "meta_classification_type": "U",
        "meta_norad_cat_id": 34976,
        "meta_element_set_no": 999,
        "meta_rev_at_epoch": 88320,
        "meta_bstar": 0.0012197404,
        "meta_mean_motion_dot": 8.664e-05,
        "meta_mean_motion_ddot": 0,
        "tle_line1": "1 34976U 93036AFF 25349.88268823  .00008664  00000+0  12197-2 0  9993",
        "tle_line2": "2 34976  74.0567 300.0972 0047804 346.2242  44.3918 14.76639954883201"
      },
      "geometry": {
        "type": "Point",
        "coordinates": [
          98.41994685801244,
          51.055359961734936
        ]
      }
    },
    {
      "type": "Feature",
      "properties": {
        "norad_id": 34979,
        "name": "COSMOS 2251 DEB",
        "group": "cosmos-2251-debris",
        "lat": -28.771154458419502,
        "lon": 89.15194562486884,
        "alt_km": 657.4658648099858,
        "timestamp": "2025-12-16T08:59:43.557308+00:00",
        "meta_object_name": "COSMOS 2251 DEB",
        "meta_object_id": "1993-036AFJ",
        "meta_epoch": "2025-12-15T19:03:47.068992",
        "meta_mean_motion": 14.79414355,
        "meta_eccentricity": 0.00491466,
        "meta_inclination": 74.0407,
        "meta_ra_of_asc_node": 261.2529,
        "meta_arg_of_pericenter": 338.5418,
        "meta_mean_anomaly": 21.3696,
        "meta_ephemeris_type": 0,
        "meta_classification_type": "U",
        "meta_norad_cat_id": 34979,
        "meta_element_set_no": 999,
        "meta_rev_at_epoch": 88265,
        "meta_bstar": 0.00078199821,
        "meta_mean_motion_dot": 5.924e-05,
        "meta_mean_motion_ddot": 0,
        "tle_line1": "1 34979U 93036AFJ 25349.79429478  .00005924  00000+0  78200-3 0  9995",
        "tle_line2": "2 34979  74.0407 261.2529 0049146 338.5418  21.3696 14.79414355882658"
      },
      "geometry": {
        "type": "Point",
        "coordinates": [
          89.15194562486884,
          -28.771154458419502
        ]
      }
    },
    {
      "type": "Feature",
      "properties": {
        "norad_id": 34990,
        "name": "COSMOS 2251 DEB",
        "group": "cosmos-2251-debris",
        "lat": -10.072470989235553,
        "lon": 67.51000501294276,
        "alt_km": 759.7441680839484,
        "timestamp": "2025-12-16T08:59:43.557319+00:00",
        "meta_object_name": "COSMOS 2251 DEB",
        "meta_object_id": "1993-036AFN",
        "meta_epoch": "2025-12-15T10:28:28.781472",
        "meta_mean_motion": 14.42382837,
        "meta_eccentricity": 0.00165597,
        "meta_inclination": 74.0457,
        "meta_ra_of_asc_node": 246.3361,
        "meta_arg_of_pericenter": 308.9911,
        "meta_mean_anomaly": 50.977,
        "meta_ephemeris_type": 0,
        "meta_classification_type": "U",
        "meta_norad_cat_id": 34990,
        "meta_element_set_no": 999,
        "meta_rev_at_epoch": 87385,
        "meta_bstar": 0.00031884459,
        "meta_mean_motion_dot": 1.029e-05,
        "meta_mean_motion_ddot": 0,
        "tle_line1": "1 34990U 93036AFN 25349.43644423  .00001029  00000+0  31884-3 0  9997",
        "tle_line2": "2 34990  74.0457 246.3361 0016559 308.9911  50.9770 14.42382837873857"
      },
      "geometry": {
        "type": "Point",
        "coordinates": [
          67.51000501294276,
          -10.072470989235553
        ]
      }
    },
    {
      "type": "Feature",
      "properties": {
        "norad_id": 34997,
        "name": "COSMOS 2251 DEB",
        "group": "cosmos-2251-debris",
        "lat": 37.223287886418795,
        "lon": -42.95412577169039,
        "alt_km": 771.6564434409702,
        "timestamp": "2025-12-16T08:59:43.557329+00:00",
        "meta_object_name": "COSMOS 2251 DEB",
        "meta_object_id": "1993-036AFV",
        "meta_epoch": "2025-12-14T03:40:01.084512",
        "meta_mean_motion": 14.45585468,
        "meta_eccentricity": 0.00977103,
        "meta_inclination": 73.8806,
        "meta_ra_of_asc_node": 308.5363,
        "meta_arg_of_pericenter": 283.3348,
        "meta_mean_anomaly": 75.6929,
        "meta_ephemeris_type": 0,
        "meta_classification_type": "U",
        "meta_norad_cat_id": 34997,
        "meta_element_set_no": 999,
        "meta_rev_at_epoch": 70767,
        "meta_bstar": 0.0019000145,
        "meta_mean_motion_dot": 7.095e-05,
        "meta_mean_motion_ddot": 0,
        "tle_line1": "1 34997U 93036AFV 25348.15279033  .00007095  00000+0  19000-2 0  9997",
        "tle_line2": "2 34997  73.8806 308.5363 0097710 283.3348  75.6929 14.45585468707674"
      },
      "geometry": {
        "type": "Point",
        "coordinates": [
          -42.95412577169039,
          37.223287886418795
        ]
      }
    },
    {
      "type": "Feature",
      "properties": {
        "norad_id": 34998,
        "name": "COSMOS 2251 DEB",
        "group": "cosmos-2251-debris",
        "lat": -32.846984726190094,
        "lon": 142.48680190796674,
        "alt_km": 720.3973853765556,
        "timestamp": "2025-12-16T08:59:43.557339+00:00",
        "meta_object_name": "COSMOS 2251 DEB",
        "meta_object_id": "1993-036AFW",
        "meta_epoch": "2025-12-14T12:41:32.006688",
        "meta_mean_motion": 14.49289974,
        "meta_eccentricity": 0.00211879,
        "meta_inclination": 74.0093,
        "meta_ra_of_asc_node": 156.6225,
        "meta_arg_of_pericenter": 301.7782,
        "meta_mean_anomaly": 116.5134,
        "meta_ephemeris_type": 0,
        "meta_classification_type": "U",
        "meta_norad_cat_id": 34998,
        "meta_element_set_no": 999,
        "meta_rev_at_epoch": 87446,
        "meta_bstar": 0.0006296674,
        "meta_mean_motion_dot": 2.382e-05,
        "meta_mean_motion_ddot": 0,
        "tle_line1": "1 34998U 93036AFW 25348.52884267  .00002382  00000+0  62967-3 0  9995",
        "tle_line2": "2 34998  74.0093 156.6225 0021187 301.7782 116.5134 14.49289974874469"
      },
      "geometry": {
        "type": "Point",
        "coordinates": [
          142.48680190796674,
          -32.846984726190094
        ]
      }
    },
    {
      "type": "Feature",
      "properties": {
        "norad_id": 35000,
        "name": "COSMOS 2251 DEB",
        "group": "cosmos-2251-debris",
        "lat": -54.258844948132186,
        "lon": 165.73995424033725,
        "alt_km": 169.4917070755164,
        "timestamp": "2025-12-16T08:59:43.557349+00:00",
        "meta_object_name": "COSMOS 2251 DEB",
        "meta_object_id": "1993-036AFY",
        "meta_epoch": "2025-12-10T00:39:45.535104",
        "meta_mean_motion": 15.84722247,
        "meta_eccentricity": 0.00096992,
        "meta_inclination": 73.9939,
        "meta_ra_of_asc_node": 204.1935,
        "meta_arg_of_pericenter": 175.3945,
        "meta_mean_anomaly": 184.7377,
        "meta_ephemeris_type": 0,
        "meta_classification_type": "U",
        "meta_norad_cat_id": 35000,
        "meta_element_set_no": 999,
        "meta_rev_at_epoch": 88472,
        "meta_bstar": 0.007821664,
        "meta_mean_motion_dot": 0.0209211,
        "meta_mean_motion_ddot": 0,
        "tle_line1": "1 35000U 93036AFY 25344.02761036  .02092110  00000+0  78217-2 0  9993",
        "tle_line2": "2 35000  73.9939 204.1935 0009699 175.3945 184.7377 15.84722247884729"
      },
      "geometry": {
        "type": "Point",
        "coordinates": [
          165.73995424033725,
          -54.258844948132186
        ]
      }
    }
  ]
}